start=new Date('2022-11-02T00:00:00.000Z').valueOf();
sats=[{"LAUNCH_DATE":"2020-08-18","INCLINATION":"53.0565","OBJECT_TYPE":"PAYLOAD","PERIAPSIS":"546.314","ARG_OF_PERICENTER":"83.5301","MEAN_ANOMALY":"276.5842","SITE":"AFETR","RA_OF_ASC_NODE":"31.4880","MEAN_MOTION":"15.06387829","RCS_SIZE":"LARGE","OBJECT_NAME":"STARLINK-1631","EPHEMERIS_TYPE":"0","CLASSIFICATION_TYPE":"U","ELEMENT_SET_NO":"999","TIME_SYSTEM":"UTC","APOAPSIS":"548.188","FILE":"3640431","PERIOD":"95.593","NORAD_CAT_ID":"46151","CENTER_NAME":"EARTH","TLE_LINE1":"1 46151U 20057AL  22305.66071971  .00001880  00000-0  14514-3 0  9995","MEAN_MOTION_DDOT":"0.0000000000000","COUNTRY_CODE":"US","SEMIMAJOR_AXIS":"6925.386","GP_ID":"216683290","EPOCH":"2022-11-01T15:51:26.182944","REF_FRAME":"TEME","MEAN_ELEMENT_THEORY":"SGP4","REV_AT_EPOCH":"12185","TLE_LINE2":"2 46151  53.0565  31.4880 0001353  83.5301 276.5842 15.06387829121859","ECCENTRICITY":"0.00013530","MEAN_MOTION_DOT":"0.00001880","DECAY_DATE":null,"OBJECT_ID":"2020-057AL","BSTAR":"0.00014514000000"},{"PERIAPSIS":"546.356","ARG_OF_PERICENTER":"84.6443","INCLINATION":"53.0555","LAUNCH_DATE":"2020-08-18","OBJECT_TYPE":"PAYLOAD","SITE":"AFETR","RA_OF_ASC_NODE":"50.9829","MEAN_MOTION":"15.06400190","MEAN_ANOMALY":"275.4687","EPHEMERIS_TYPE":"0","CLASSIFICATION_TYPE":"U","ELEMENT_SET_NO":"999","TIME_SYSTEM":"UTC","RCS_SIZE":"LARGE","OBJECT_NAME":"STARLINK-1634","PERIOD":"95.592","NORAD_CAT_ID":"46152","CENTER_NAME":"EARTH","APOAPSIS":"548.070","FILE":"3640431","GP_ID":"216683539","SEMIMAJOR_AXIS":"6925.348","EPOCH":"2022-11-01T18:38:36.755520","REF_FRAME":"TEME","TLE_LINE1":"1 46152U 20057AM  22305.77681430  .00001293  00000-0  10569-3 0  9999","MEAN_MOTION_DDOT":"0.0000000000000","COUNTRY_CODE":"US","REV_AT_EPOCH":"12159","TLE_LINE2":"2 46152  53.0555  50.9829 0001238  84.6443 275.4687 15.06400190121592","MEAN_ELEMENT_THEORY":"SGP4","ECCENTRICITY":"0.00012380","MEAN_MOTION_DOT":"0.00001293","BSTAR":"0.00010569000000","DECAY_DATE":null,"OBJECT_ID":"2020-057AM"},{"FILE":"3640409","APOAPSIS":"548.223","CENTER_NAME":"EARTH","PERIOD":"95.592","NORAD_CAT_ID":"46153","RCS_SIZE":"LARGE","OBJECT_NAME":"STARLINK-1636","TIME_SYSTEM":"UTC","ELEMENT_SET_NO":"999","EPHEMERIS_TYPE":"0","CLASSIFICATION_TYPE":"U","MEAN_ANOMALY":"287.1434","RA_OF_ASC_NODE":"32.0088","MEAN_MOTION":"15.06401792","SITE":"AFETR","OBJECT_TYPE":"PAYLOAD","INCLINATION":"53.0540","LAUNCH_DATE":"2020-08-18","PERIAPSIS":"546.193","ARG_OF_PERICENTER":"72.9716","OBJECT_ID":"2020-057AN","DECAY_DATE":null,"BSTAR":"0.00030710000000","MEAN_MOTION_DOT":"0.00004296","ECCENTRICITY":"0.00014660","MEAN_ELEMENT_THEORY":"SGP4","REV_AT_EPOCH":"12183","TLE_LINE2":"2 46153  53.0540  32.0088 0001466  72.9716 287.1434 15.06401792121837","COUNTRY_CODE":"US","TLE_LINE1":"1 46153U 20057AN  22305.54644968  .00004296  00000-0  30710-3 0  9996","MEAN_MOTION_DDOT":"0.0000000000000","EPOCH":"2022-11-01T13:06:53.252352","REF_FRAME":"TEME","SEMIMAJOR_AXIS":"6925.343","GP_ID":"216656551"},{"MEAN_MOTION_DOT":"0.00003197","ECCENTRICITY":"0.00014320","BSTAR":"0.00023346000000","OBJECT_ID":"2020-057AP","DECAY_DATE":null,"EPOCH":"2022-11-01T16:32:34.011456","REF_FRAME":"TEME","SEMIMAJOR_AXIS":"6925.380","GP_ID":"216682043","COUNTRY_CODE":"US","MEAN_MOTION_DDOT":"0.0000000000000","TLE_LINE1":"1 46154U 20057AP  22305.68928254  .00003197  00000-0  23346-3 0  9991","REV_AT_EPOCH":"12172","TLE_LINE2":"2 46154  53.0547  41.3704 0001432  85.1118 275.0035 15.06389719121723","MEAN_ELEMENT_THEORY":"SGP4","ELEMENT_SET_NO":"999","TIME_SYSTEM":"UTC","EPHEMERIS_TYPE":"0","CLASSIFICATION_TYPE":"U","RCS_SIZE":"LARGE","OBJECT_NAME":"STARLINK-1642","PERIOD":"95.593","CENTER_NAME":"EARTH","NORAD_CAT_ID":"46154","FILE":"3640431","APOAPSIS":"548.237","PERIAPSIS":"546.253","ARG_OF_PERICENTER":"85.1118","OBJECT_TYPE":"PAYLOAD","LAUNCH_DATE":"2020-08-18","INCLINATION":"53.0547","RA_OF_ASC_NODE":"41.3704","MEAN_MOTION":"15.06389719","SITE":"AFETR","MEAN_ANOMALY":"275.0035"},{"FILE":"3640431","APOAPSIS":"548.325","CENTER_NAME":"EARTH","PERIOD":"95.592","NORAD_CAT_ID":"46155","RCS_SIZE":"LARGE","OBJECT_NAME":"STARLINK-1667","ELEMENT_SET_NO":"999","TIME_SYSTEM":"UTC","EPHEMERIS_TYPE":"0","CLASSIFICATION_TYPE":"U","MEAN_ANOMALY":"297.6983","RA_OF_ASC_NODE":"11.8623","MEAN_MOTION":"15.06402616","SITE":"AFETR","OBJECT_TYPE":"PAYLOAD","LAUNCH_DATE":"2020-08-18","INCLINATION":"53.0555","PERIAPSIS":"546.086","ARG_OF_PERICENTER":"62.4170","OBJECT_ID":"2020-057AQ","DECAY_DATE":null,"BSTAR":"0.00026754000000","MEAN_MOTION_DOT":"0.00003706","ECCENTRICITY":"0.00016160","MEAN_ELEMENT_THEORY":"SGP4","REV_AT_EPOCH":"12336","TLE_LINE2":"2 46155  53.0555  11.8623 0001616  62.4170 297.6983 15.06402616123361","COUNTRY_CODE":"US","MEAN_MOTION_DDOT":"0.0000000000000","TLE_LINE1":"1 46155U 20057AQ  22305.58146644  .00003706  00000-0  26754-3 0  9998","EPOCH":"2022-11-01T13:57:18.700416","REF_FRAME":"TEME","SEMIMAJOR_AXIS":"6925.341","GP_ID":"216682791"},{"INCLINATION":"53.0535","LAUNCH_DATE":"2020-08-18","OBJECT_TYPE":"PAYLOAD","ARG_OF_PERICENTER":"64.3697","PERIAPSIS":"546.190","MEAN_ANOMALY":"295.7442","SITE":"AFETR","MEAN_MOTION":"15.06406566","RA_OF_ASC_NODE":"32.8038","OBJECT_NAME":"STARLINK-1545","RCS_SIZE":"LARGE","CLASSIFICATION_TYPE":"U","EPHEMERIS_TYPE":"0","TIME_SYSTEM":"UTC","ELEMENT_SET_NO":"999","APOAPSIS":"548.197","FILE":"3640409","CENTER_NAME":"EARTH","PERIOD":"95.592","NORAD_CAT_ID":"46156","MEAN_MOTION_DDOT":"0.0000000000000","TLE_LINE1":"1 46156U 20057AR  22305.37320568  .00012108  00000-0  83023-3 0  9993","COUNTRY_CODE":"US","SEMIMAJOR_AXIS":"6925.328","GP_ID":"216657796","REF_FRAME":"TEME","EPOCH":"2022-11-01T08:57:24.970752","MEAN_ELEMENT_THEORY":"SGP4","TLE_LINE2":"2 46156  53.0535  32.8038 0001449  64.3697 295.7442 15.06406566123066","REV_AT_EPOCH":"12306","ECCENTRICITY":"0.00014490","MEAN_MOTION_DOT":"0.00012108","DECAY_DATE":null,"OBJECT_ID":"2020-057AR","BSTAR":"0.00083023000000"},{"REV_AT_EPOCH":"12211","TLE_LINE2":"2 46157  53.0551  12.2665 0002109  43.1827 316.9327 15.06379390122114","MEAN_ELEMENT_THEORY":"SGP4","EPOCH":"2022-11-01T11:49:56.197056","REF_FRAME":"TEME","GP_ID":"216656052","SEMIMAJOR_AXIS":"6925.412","COUNTRY_CODE":"US","TLE_LINE1":"1 46157U 20057AS  22305.49301154  .00002763  00000-0  20441-3 0  9998","MEAN_MOTION_DDOT":"0.0000000000000","BSTAR":"0.00020441000000","OBJECT_ID":"2020-057AS","DECAY_DATE":null,"MEAN_MOTION_DOT":"0.00002763","ECCENTRICITY":"0.00021090","RA_OF_ASC_NODE":"12.2665","MEAN_MOTION":"15.06379390","SITE":"AFETR","MEAN_ANOMALY":"316.9327","PERIAPSIS":"545.816","ARG_OF_PERICENTER":"43.1827","OBJECT_TYPE":"PAYLOAD","INCLINATION":"53.0551","LAUNCH_DATE":"2020-08-18","PERIOD":"95.593","NORAD_CAT_ID":"46157","CENTER_NAME":"EARTH","FILE":"3640409","APOAPSIS":"548.737","TIME_SYSTEM":"UTC","ELEMENT_SET_NO":"999","EPHEMERIS_TYPE":"0","CLASSIFICATION_TYPE":"U","RCS_SIZE":"LARGE","OBJECT_NAME":"STARLINK-1587"},{"MEAN_ELEMENT_THEORY":"SGP4","TLE_LINE2":"2 46158  53.0553  12.2744 0001451  58.3102 301.8029 15.06390790123376","REV_AT_EPOCH":"12337","COUNTRY_CODE":"US","MEAN_MOTION_DDOT":"0.0000000000000","TLE_LINE1":"1 46158U 20057AT  22305.48931772  .00001315  00000-0  10716-3 0  9999","REF_FRAME":"TEME","EPOCH":"2022-11-01T11:44:37.051008","GP_ID":"216656802","SEMIMAJOR_AXIS":"6925.377","OBJECT_ID":"2020-057AT","DECAY_DATE":null,"BSTAR":"0.00010716000000","MEAN_MOTION_DOT":"0.00001315","ECCENTRICITY":"0.00014510","MEAN_ANOMALY":"301.8029","MEAN_MOTION":"15.06390790","RA_OF_ASC_NODE":"12.2744","SITE":"AFETR","OBJECT_TYPE":"PAYLOAD","LAUNCH_DATE":"2020-08-18","INCLINATION":"53.0553","ARG_OF_PERICENTER":"58.3102","PERIAPSIS":"546.237","FILE":"3640409","APOAPSIS":"548.247","NORAD_CAT_ID":"46158","PERIOD":"95.593","CENTER_NAME":"EARTH","OBJECT_NAME":"STARLINK-1589","RCS_SIZE":"LARGE","ELEMENT_SET_NO":"999","TIME_SYSTEM":"UTC","CLASSIFICATION_TYPE":"U","EPHEMERIS_TYPE":"0"},{"MEAN_ELEMENT_THEORY":"SGP4","TLE_LINE2":"2 46159  53.0564  51.5017 0001163  77.9183 282.1936 15.06404344122833","REV_AT_EPOCH":"12283","MEAN_MOTION_DDOT":"0.0000000000000","TLE_LINE1":"1 46159U 20057AU  22305.66254757  .00000703  00000-0  66088-4 0  9995","COUNTRY_CODE":"US","GP_ID":"216683291","SEMIMAJOR_AXIS":"6925.335","REF_FRAME":"TEME","EPOCH":"2022-11-01T15:54:04.110048","DECAY_DATE":null,"OBJECT_ID":"2020-057AU","BSTAR":"0.00006608800000","ECCENTRICITY":"0.00011630","MEAN_MOTION_DOT":"0.00000703","MEAN_ANOMALY":"282.1936","SITE":"AFETR","MEAN_MOTION":"15.06404344","RA_OF_ASC_NODE":"51.5017","LAUNCH_DATE":"2020-08-18","INCLINATION":"53.0564","OBJECT_TYPE":"PAYLOAD","ARG_OF_PERICENTER":"77.9183","PERIAPSIS":"546.395","APOAPSIS":"548.006","FILE":"3640431","PERIOD":"95.592","CENTER_NAME":"EARTH","NORAD_CAT_ID":"46159","OBJECT_NAME":"STARLINK-1595","RCS_SIZE":"LARGE","CLASSIFICATION_TYPE":"U","EPHEMERIS_TYPE":"0","ELEMENT_SET_NO":"999","TIME_SYSTEM":"UTC"},{"COUNTRY_CODE":"US","MEAN_MOTION_DDOT":"0.0000000000000","TLE_LINE1":"1 46160U 20057AV  22305.65334494  .00002472  00000-0  18488-3 0  9998","EPOCH":"2022-11-01T15:40:49.002816","REF_FRAME":"TEME","GP_ID":"216683540","SEMIMAJOR_AXIS":"6925.391","MEAN_ELEMENT_THEORY":"SGP4","REV_AT_EPOCH":"12310","TLE_LINE2":"2 46160  53.0567  31.5308 0001351  48.5797 311.5308 15.06386022123106","MEAN_MOTION_DOT":"0.00002472","ECCENTRICITY":"0.00013510","OBJECT_ID":"2020-057AV","DECAY_DATE":null,"BSTAR":"0.00018488000000","OBJECT_TYPE":"PAYLOAD","LAUNCH_DATE":"2020-08-18","INCLINATION":"53.0567","PERIAPSIS":"546.321","ARG_OF_PERICENTER":"48.5797","MEAN_ANOMALY":"311.5308","RA_OF_ASC_NODE":"31.5308","MEAN_MOTION":"15.06386022","SITE":"AFETR","RCS_SIZE":"LARGE","OBJECT_NAME":"STARLINK-1598","ELEMENT_SET_NO":"999","TIME_SYSTEM":"UTC","EPHEMERIS_TYPE":"0","CLASSIFICATION_TYPE":"U","FILE":"3640431","APOAPSIS":"548.192","PERIOD":"95.593","CENTER_NAME":"EARTH","NORAD_CAT_ID":"46160"}];
